ONEWEB-0668             
1 56711U 23068B   25122.46508410  .00000002  00000+0 -27450-4 0  9993
2 56711  87.9005 310.6233 0002102 104.5401 255.5964 13.16594297 97738
ONEWEB-0676             
1 56712U 23068C   25122.44527677  .00000140  00000+0  33286-3 0  9993
2 56712  87.9017 310.6566 0001892  74.8776 285.2564 13.16593504 97657
ONEWEB-0677             
1 56713U 23068D   25122.35765836  .00000100  00000+0  21283-3 0  9995
2 56713  87.9289 356.2473 0002082  79.7444 280.3924 13.20771963 95577
ONEWEB-0678             
1 56714U 23068E   25122.60253104  .00000129  00000+0  30912-3 0  9994
2 56714  87.9078 341.0083 0001477  75.6550 284.4745 13.15547652 95300
ONEWEB-0679             
1 56715U 23068F   25122.49038812 -.00000277  00000+0 -75880-3 0  9998
2 56715  87.9009 310.6412 0002333  90.5798 269.5600 13.16592824 97684
ONEWEB-0680             
1 56716U 23068G   25122.59566756  .00000037  00000+0  58162-4 0  9990
2 56716  87.9234 325.8637 0002299 101.1570 258.9823 13.21826230 96854
ONEWEB-0681             
1 56717U 23068H   25122.60591790  .00000041  00000+0  68514-4 0  9996
2 56717  87.9253 325.8779 0002533  69.7030 290.4376 13.21825731 96842
ONEWEB-0682             
1 56718U 23068J   25122.62867518 -.00000157  00000+0 -45064-3 0  9997
2 56718  87.9073 341.0354 0002224  93.1242 267.0143 13.15547538 95474
